[{"OBJECT_NAME":"ONEWEB-0383","OBJECT_ID":"2021-090AG","EPOCH":"2025-11-11T02:33:03.283200","MEAN_MOTION":13.14505106,"ECCENTRICITY":0.00017241,"INCLINATION":87.8997,"RA_OF_ASC_NODE":333.1375,"ARG_OF_PERICENTER":99.0245,"MEAN_ANOMALY":261.108,"EPHEMERIS_TYPE":0,"CLASSIFICATION_TYPE":"U","NORAD_CAT_ID":49309,"ELEMENT_SET_NO":999,"REV_AT_EPOCH":19894,"BSTAR":0.00025107472,"MEAN_MOTION_DOT":1.06e-6,"MEAN_MOTION_DDOT":0},{"OBJECT_NAME":"ONEWEB-0384","OBJECT_ID":"2021-090AH","EPOCH":"2025-11-11T00:51:45.231552","MEAN_MOTION":13.20796994,"ECCENTRICITY":0.00014813,"INCLINATION":87.9195,"RA_OF_ASC_NODE":317.9736,"ARG_OF_PERICENTER":105.916,"MEAN_ANOMALY":254.2137,"EPHEMERIS_TYPE":0,"CLASSIFICATION_TYPE":"U","NORAD_CAT_ID":49310,"ELEMENT_SET_NO":999,"REV_AT_EPOCH":20103,"BSTAR":0.00018216257,"MEAN_MOTION_DOT":8.7e-7,"MEAN_MOTION_DDOT":0},{"OBJECT_NAME":"ONEWEB-0385","OBJECT_ID":"2021-090AJ","EPOCH":"2025-11-11T00:48:57.014208","MEAN_MOTION":13.20771696,"ECCENTRICITY":0.00016439,"INCLINATION":87.9172,"RA_OF_ASC_NODE":317.9493,"ARG_OF_PERICENTER":93.7841,"MEAN_ANOMALY":266.348,"EPHEMERIS_TYPE":0,"CLASSIFICATION_TYPE":"U","NORAD_CAT_ID":49311,"ELEMENT_SET_NO":999,"REV_AT_EPOCH":20100,"BSTAR":3.4735758e-5,"MEAN_MOTION_DOT":2.7e-7,"MEAN_MOTION_DDOT":0},{"OBJECT_NAME":"ONEWEB-0386","OBJECT_ID":"2021-090AK","EPOCH":"2025-11-11T06:41:14.272224","MEAN_MOTION":13.20772788,"ECCENTRICITY":0.00016318,"INCLINATION":87.9185,"RA_OF_ASC_NODE":317.8813,"ARG_OF_PERICENTER":97.278,"MEAN_ANOMALY":262.8539,"EPHEMERIS_TYPE":0,"CLASSIFICATION_TYPE":"U","NORAD_CAT_ID":49312,"ELEMENT_SET_NO":999,"REV_AT_EPOCH":20105,"BSTAR":0.00018514119,"MEAN_MOTION_DOT":8.8e-7,"MEAN_MOTION_DDOT":0},{"OBJECT_NAME":"ONEWEB-0387","OBJECT_ID":"2021-090AL","EPOCH":"2025-11-11T00:51:15.207552","MEAN_MOTION":13.20771393,"ECCENTRICITY":0.00015596,"INCLINATION":87.9174,"RA_OF_ASC_NODE":317.9779,"ARG_OF_PERICENTER":84.3679,"MEAN_ANOMALY":275.7632,"EPHEMERIS_TYPE":0,"CLASSIFICATION_TYPE":"U","NORAD_CAT_ID":49313,"ELEMENT_SET_NO":999,"REV_AT_EPOCH":20102,"BSTAR":-9.869156e-5,"MEAN_MOTION_DOT":-2.7e-7,"MEAN_MOTION_DDOT":0},{"OBJECT_NAME":"ONEWEB-0388","OBJECT_ID":"2021-090AM","EPOCH":"2025-11-11T03:09:03.981312","MEAN_MOTION":13.19726129,"ECCENTRICITY":0.00017231,"INCLINATION":87.9214,"RA_OF_ASC_NODE":348.3667,"ARG_OF_PERICENTER":98.6031,"MEAN_ANOMALY":261.5297,"EPHEMERIS_TYPE":0,"CLASSIFICATION_TYPE":"U","NORAD_CAT_ID":49314,"ELEMENT_SET_NO":999,"REV_AT_EPOCH":19765,"BSTAR":0.00017752582,"MEAN_MOTION_DOT":8.4e-7,"MEAN_MOTION_DDOT":0},{"OBJECT_NAME":"ONEWEB-0389","OBJECT_ID":"2021-132A","EPOCH":"2025-11-11T06:17:07.749600","MEAN_MOTION":13.17648372,"ECCENTRICITY":0.00013094,"INCLINATION":87.9138,"RA_OF_ASC_NODE":49.2049,"ARG_OF_PERICENTER":103.1431,"MEAN_ANOMALY":256.9847,"EPHEMERIS_TYPE":0,"CLASSIFICATION_TYPE":"U","NORAD_CAT_ID":50469,"ELEMENT_SET_NO":999,"REV_AT_EPOCH":18938,"BSTAR":0.00014762793,"MEAN_MOTION_DOT":7.0e-7,"MEAN_MOTION_DDOT":0},{"OBJECT_NAME":"ONEWEB-0390","OBJECT_ID":"2021-132B","EPOCH":"2025-11-11T06:19:34.705632","MEAN_MOTION":13.17651042,"ECCENTRICITY":0.00017911,"INCLINATION":87.913,"RA_OF_ASC_NODE":49.2086,"ARG_OF_PERICENTER":93.4889,"MEAN_ANOMALY":266.6447,"EPHEMERIS_TYPE":0,"CLASSIFICATION_TYPE":"U","NORAD_CAT_ID":50470,"ELEMENT_SET_NO":999,"REV_AT_EPOCH":18938,"BSTAR":0.00038406012,"MEAN_MOTION_DOT":1.62e-6,"MEAN_MOTION_DDOT":0},{"OBJECT_NAME":"ONEWEB-0391","OBJECT_ID":"2021-132C","EPOCH":"2025-11-11T06:21:59.216544","MEAN_MOTION":13.17652684,"ECCENTRICITY":9.845e-5,"INCLINATION":87.9128,"RA_OF_ASC_NODE":49.2186,"ARG_OF_PERICENTER":82.5047,"MEAN_ANOMALY":277.6197,"EPHEMERIS_TYPE":0,"CLASSIFICATION_TYPE":"U","NORAD_CAT_ID":50471,"ELEMENT_SET_NO":999,"REV_AT_EPOCH":18938,"BSTAR":0.000250744,"MEAN_MOTION_DOT":1.1e-6,"MEAN_MOTION_DDOT":0},{"OBJECT_NAME":"ONEWEB-0392","OBJECT_ID":"2021-132D","EPOCH":"2025-11-11T07:05:43.773792","MEAN_MOTION":13.17648534,"ECCENTRICITY":0.00013052,"INCLINATION":87.9136,"RA_OF_ASC_NODE":49.1622,"ARG_OF_PERICENTER":100.2067,"MEAN_ANOMALY":259.9212,"EPHEMERIS_TYPE":0,"CLASSIFICATION_TYPE":"U","NORAD_CAT_ID":50472,"ELEMENT_SET_NO":999,"REV_AT_EPOCH":18942,"BSTAR":0.00010754404,"MEAN_MOTION_DOT":5.5e-7,"MEAN_MOTION_DDOT":0},{"OBJECT_NAME":"ONEWEB-0393","OBJECT_ID":"2021-132E","EPOCH":"2025-11-11T06:27:03.992544","MEAN_MOTION":13.176494,"ECCENTRICITY":0.00015041,"INCLINATION":87.914,"RA_OF_ASC_NODE":49.1886,"ARG_OF_PERICENTER":103.0878,"MEAN_ANOMALY":257.0422,"EPHEMERIS_TYPE":0,"CLASSIFICATION_TYPE":"U","NORAD_CAT_ID":50473,"ELEMENT_SET_NO":999,"REV_AT_EPOCH":18941,"BSTAR":0.00018669026,"MEAN_MOTION_DOT":8.5e-7,"MEAN_MOTION_DDOT":0},{"OBJECT_NAME":"ONEWEB-0394","OBJECT_ID":"2021-132F","EPOCH":"2025-11-11T06:09:13.019616","MEAN_MOTION":13.18687882,"ECCENTRICITY":0.00016371,"INCLINATION":87.9223,"RA_OF_ASC_NODE":18.7226,"ARG_OF_PERICENTER":102.5743,"MEAN_ANOMALY":257.5572,"EPHEMERIS_TYPE":0,"CLASSIFICATION_TYPE":"U","NORAD_CAT_ID":50474,"ELEMENT_SET_NO":999,"REV_AT_EPOCH":19287,"BSTAR":8.959822e-6,"MEAN_MOTION_DOT":1.6e-7,"MEAN_MOTION_DDOT":0},{"OBJECT_NAME":"ONEWEB-0395","OBJECT_ID":"2021-132G","EPOCH":"2025-11-11T06:19:21.819072","MEAN_MOTION":13.11415911,"ECCENTRICITY":0.00015688,"INCLINATION":87.8858,"RA_OF_ASC_NODE":64.474,"ARG_OF_PERICENTER":92.042,"MEAN_ANOMALY":268.0888,"EPHEMERIS_TYPE":0,"CLASSIFICATION_TYPE":"U","NORAD_CAT_ID":50475,"ELEMENT_SET_NO":999,"REV_AT_EPOCH":18715,"BSTAR":-0.0013024143,"MEAN_MOTION_DOT":-4.49e-6,"MEAN_MOTION_DDOT":0},{"OBJECT_NAME":"ONEWEB-0396","OBJECT_ID":"2021-132H","EPOCH":"2025-11-11T04:10:27.815520","MEAN_MOTION":13.18687877,"ECCENTRICITY":0.00017157,"INCLINATION":87.9224,"RA_OF_ASC_NODE":18.7517,"ARG_OF_PERICENTER":100.6935,"MEAN_ANOMALY":259.439,"EPHEMERIS_TYPE":0,"CLASSIFICATION_TYPE":"U","NORAD_CAT_ID":50476,"ELEMENT_SET_NO":999,"REV_AT_EPOCH":19290,"BSTAR":4.0227873e-5,"MEAN_MOTION_DOT":2.9e-7,"MEAN_MOTION_DDOT":0},{"OBJECT_NAME":"ONEWEB-0397","OBJECT_ID":"2021-132J","EPOCH":"2025-11-11T04:31:49.177632","MEAN_MOTION":13.18685875,"ECCENTRICITY":0.00016736,"INCLINATION":87.9222,"RA_OF_ASC_NODE":18.7486,"ARG_OF_PERICENTER":105.4518,"MEAN_ANOMALY":254.6799,"EPHEMERIS_TYPE":0,"CLASSIFICATION_TYPE":"U","NORAD_CAT_ID":50477,"ELEMENT_SET_NO":999,"REV_AT_EPOCH":19288,"BSTAR":-0.00077855689,"MEAN_MOTION_DOT":-2.94e-6,"MEAN_MOTION_DDOT":0},{"OBJECT_NAME":"ONEWEB-0398","OBJECT_ID":"2021-132K","EPOCH":"2025-11-11T07:22:52.213728","MEAN_MOTION":13.11417046,"ECCENTRICITY":0.00017314,"INCLINATION":87.8867,"RA_OF_ASC_NODE":64.4353,"ARG_OF_PERICENTER":88.2686,"MEAN_ANOMALY":271.8641,"EPHEMERIS_TYPE":0,"CLASSIFICATION_TYPE":"U","NORAD_CAT_ID":50478,"ELEMENT_SET_NO":999,"REV_AT_EPOCH":18705,"BSTAR":0.001313104,"MEAN_MOTION_DOT":4.78e-6,"MEAN_MOTION_DDOT":0},{"OBJECT_NAME":"ONEWEB-0399","OBJECT_ID":"2021-132L","EPOCH":"2025-11-11T07:03:20.576160","MEAN_MOTION":13.11417271,"ECCENTRICITY":0.00011381,"INCLINATION":87.8855,"RA_OF_ASC_NODE":64.4547,"ARG_OF_PERICENTER":110.7623,"MEAN_ANOMALY":249.3627,"EPHEMERIS_TYPE":0,"CLASSIFICATION_TYPE":"U","NORAD_CAT_ID":50479,"ELEMENT_SET_NO":999,"REV_AT_EPOCH":18704,"BSTAR":0.0015693827,"MEAN_MOTION_DOT":5.69e-6,"MEAN_MOTION_DDOT":0}]
