ONEWEB-0383             
1 49309U 21090AG  25315.10628800  .00000106  00000+0  25107-3 0  9992
2 49309  87.8997 333.1375 0001724  99.0245 261.1080 13.14505106198948
ONEWEB-0384             
1 49310U 21090AH  25315.03594018  .00000087  00000+0  18216-3 0  9990
2 49310  87.9195 317.9736 0001481 105.9160 254.2137 13.20796994201030
ONEWEB-0385             
1 49311U 21090AJ  25315.03399322  .00000027  00000+0  34736-4 0  9992
2 49311  87.9172 317.9493 0001643  93.7841 266.3480 13.20771696201000
ONEWEB-0386             
1 49312U 21090AK  25315.27863741  .00000088  00000+0  18514-3 0  9992
2 49312  87.9185 317.8813 0001631  97.2780 262.8539 13.20772788201052
ONEWEB-0387             
1 49313U 21090AL  25315.03559268 -.00000027  00000+0 -98692-4 0  9994
2 49313  87.9174 317.9779 0001559  84.3679 275.7632 13.20771393201021
ONEWEB-0388             
1 49314U 21090AM  25315.13129608  .00000084  00000+0  17753-3 0  9996
2 49314  87.9214 348.3667 0001723  98.6031 261.5297 13.19726129197652
ONEWEB-0389             
1 50469U 21132A   25315.26189525  .00000070  00000+0  14763-3 0  9997
2 50469  87.9138  49.2049 0001309 103.1431 256.9847 13.17648372189388
ONEWEB-0390             
1 50470U 21132B   25315.26359613  .00000162  00000+0  38406-3 0  9998
2 50470  87.9130  49.2086 0001791  93.4889 266.6447 13.17651042189388
ONEWEB-0391             
1 50471U 21132C   25315.26526871  .00000110  00000+0  25074-3 0  9991
2 50471  87.9128  49.2186 0000984  82.5047 277.6197 13.17652684189382
ONEWEB-0392             
1 50472U 21132D   25315.29564553  .00000055  00000+0  10754-3 0  9991
2 50472  87.9136  49.1622 0001305 100.2067 259.9212 13.17648534189429
ONEWEB-0393             
1 50473U 21132E   25315.26879621  .00000085  00000+0  18669-3 0  9990
2 50473  87.9140  49.1886 0001504 103.0878 257.0422 13.17649400189413
ONEWEB-0394             
1 50474U 21132F   25315.25640069  .00000016  00000+0  89598-5 0  9997
2 50474  87.9223  18.7226 0001637 102.5743 257.5572 13.18687882192870
ONEWEB-0395             
1 50475U 21132G   25315.26344698 -.00000449  00000+0 -13024-2 0  9998
2 50475  87.8858  64.4740 0001568  92.0420 268.0888 13.11415911187158
ONEWEB-0396             
1 50476U 21132H   25315.17393305  .00000029  00000+0  40228-4 0  9998
2 50476  87.9224  18.7517 0001715 100.6935 259.4390 13.18687877192902
ONEWEB-0397             
1 50477U 21132J   25315.18876363 -.00000294  00000+0 -77856-3 0  9992
2 50477  87.9222  18.7486 0001673 105.4518 254.6799 13.18685875192882
ONEWEB-0398             
1 50478U 21132K   25315.30754877  .00000478  00000+0  13131-2 0  9999
2 50478  87.8867  64.4353 0001731  88.2686 271.8641 13.11417046187053
ONEWEB-0399             
1 50479U 21132L   25315.29398815  .00000569  00000+0  15694-2 0  9991
2 50479  87.8855  64.4547 0001138 110.7623 249.3627 13.11417271187042
